NORAD_CAT_ID,OBJECT_NAME,OBJECT_TYPE,EPOCH,MEAN_MOTION,ECCENTRICITY,INCLINATION,RA_OF_ASC_NODE,ARG_OF_PERICENTER,MEAN_ANOMALY,BSTAR,MEAN_MOTION_DOT,MEAN_MOTION_DDOT,TLE_LINE0,TLE_LINE1,TLE_LINE2,SEMIMAJOR_AXIS,PERIOD,APOGEE,PERIGEE,DECAYED
51149.0,STARLINK-3360,PAYLOAD,2024-05-15 03:08:26,15.08924621,0.0001206,53.2174,47.7694,89.1645,270.9485,0.00087128,0.00013638,0.0,0 STARLINK-3360,1 51149U 22005AX  24136.13086397  .00013638  00000-0  87128-3 0  9992,2 51149  53.2174  47.7694 0001206  89.1645 270.9485 15.08924621128423,6917.622,95.432,540.321,538.652,0.0
51149.0,STARLINK-3360,PAYLOAD,2024-05-15 17:26:54,15.08869187,9.79e-05,53.2185,45.0922,98.7534,261.3569,-0.00050157,-8.268e-05,0.0,0 STARLINK-3360,1 51149U 22005AX  24136.72702106 -.00008268  00000-0 -50157-3 0  9997,2 51149  53.2185  45.0922 0000979  98.7534 261.3569 15.08869187129624,6917.791,95.436,540.333,538.979,0.0
51149.0,STARLINK-3360,PAYLOAD,2024-05-15 22:13:03,15.08874263,0.0001396,53.2181,44.2005,113.7887,246.3252,-0.00023658,-4.055e-05,0.0,0 STARLINK-3360,1 51149U 22005AX  24136.92573551 -.00004055  00000-0 -23658-3 0  9995,2 51149  53.2181  44.2005 0001396 113.7887 246.3252 15.08874263128549,6917.776,95.435,540.606,538.675,0.0
51149.0,STARLINK-3360,PAYLOAD,2024-05-16 10:56:08,15.08854108,0.0001501,53.2181,41.822,84.1835,275.9329,-0.00036225,-6.051e-05,0.0,0 STARLINK-3360,1 51149U 22005AX  24137.45565595 -.00006051  00000-0 -36225-3 0  9995,2 51149  53.2181  41.8220 0001501  84.1835 275.9329 15.08854108128621,6917.837,95.437,540.741,538.664,0.0
51149.0,STARLINK-3360,PAYLOAD,2024-05-17 01:14:36,15.08847277,0.0001414,53.2173,39.1463,89.8534,270.262,-6.0241e-05,-1.247e-05,0.0,0 STARLINK-3360,1 51149U 22005AX  24138.05181457 -.00001247  00000-0 -60241-4 0  9991,2 51149  53.2173  39.1463 0001414  89.8534 270.2620 15.08847277129826,6917.858,95.437,540.701,538.745,0.0
51149.0,STARLINK-3360,PAYLOAD,2024-05-17 10:46:56,15.0883285,0.0001371,53.2173,37.362,86.6206,273.4943,-4.1218e-05,-9.44e-06,0.0,0 STARLINK-3360,1 51149U 22005AX  24138.44926186 -.00000944  00000-0 -41218-4 0  9996,2 51149  53.2173  37.3620 0001371  86.6206 273.4943 15.08832850129884,6917.902,95.438,540.716,538.819,0.0
51149.0,STARLINK-3360,PAYLOAD,2024-05-17 21:54:38,15.0883008,0.0001805,53.2185,35.2775,108.7192,251.3996,-0.00013578,-2.448e-05,0.0,0 STARLINK-3360,1 51149U 22005AX  24138.91294914 -.00002448  00000-0 -13578-3 0  9993,2 51149  53.2185  35.2775 0001805 108.7192 251.3996 15.08830080128848,6917.911,95.438,541.024,538.527,0.0
51149.0,STARLINK-3360,PAYLOAD,2024-05-17 23:30:02,15.08823808,0.0001299,53.2175,34.9815,110.579,249.5341,-0.0002173,-3.743e-05,0.0,0 STARLINK-3360,1 51149U 22005AX  24138.97919061 -.00003743  00000-0 -21730-3 0  9994,2 51149  53.2175  34.9815 0001299 110.5790 249.5341 15.08823808129967,6917.93,95.439,540.694,538.896,0.0
51149.0,STARLINK-3360,PAYLOAD,2024-05-18 10:37:43,15.08844904,0.0001501,53.2194,32.8994,110.2648,249.8505,9.6017e-05,1.241e-05,0.0,0 STARLINK-3360,1 51149U 22005AX  24139.44286378  .00001241  00000-0  96017-4 0  9995,2 51149  53.2194  32.8994 0001501 110.2648 249.8505 15.08844904130033,6917.865,95.437,540.769,538.692,0.0
51149.0,STARLINK-3360,PAYLOAD,2024-05-18 23:20:47,15.08868257,0.0001424,53.2178,30.5234,81.0229,279.0925,0.00068183,0.00010588,0.0,0 STARLINK-3360,1 51149U 22005AX  24139.97277394  .00010588  00000-0  68183-3 0  9997,2 51149  53.2178  30.5234 0001424  81.0229 279.0925 15.08868257129004,6917.794,95.436,540.644,538.674,0.0
51149.0,STARLINK-3360,PAYLOAD,2024-05-19 02:31:33,15.08870928,0.0001512,53.2174,29.9284,81.6141,278.5023,0.00061623,9.541e-05,0.0,0 STARLINK-3360,1 51149U 22005AX  24140.10524683  .00009541  00000-0  61623-3 0  9999,2 51149  53.2174  29.9284 0001512  81.6141 278.5023 15.08870928130131,6917.786,95.436,540.697,538.605,0.0
51149.0,STARLINK-3360,PAYLOAD,2024-05-19 20:00:50,15.08825561,0.0001569,53.2167,26.6549,105.5345,254.582,-2.9716e-05,-7.61e-06,0.0,0 STARLINK-3360,1 51149U 22005AX  24140.83391221 -.00000761  00000-0 -29716-4 0  9994,2 51149  53.2167  26.6549 0001569 105.5345 254.5820 15.08825561130249,6917.925,95.438,540.875,538.704,0.0
51149.0,STARLINK-3360,PAYLOAD,2024-05-19 23:11:36,15.08832071,0.00014,53.2172,26.0613,100.4212,259.6938,-0.000157,-2.785e-05,0.0,0 STARLINK-3360,1 51149U 22005AX  24140.96638940 -.00002785  00000-0 -15700-3 0  9995,2 51149  53.2172  26.0613 0001400 100.4212 259.6938 15.08832071129150,6917.905,95.438,540.738,538.801,0.0
51149.0,STARLINK-3360,PAYLOAD,2024-05-20 21:27:00,15.0883705,0.0001626,53.2181,21.8994,100.8,259.3176,-0.00010538,-1.965e-05,0.0,0 STARLINK-3360,1 51149U 22005AX  24141.89375171 -.00001965  00000-0 -10538-3 0  9995,2 51149  53.2181  21.8994 0001626 100.8000 259.3176 15.08837050130407,6917.889,95.438,540.879,538.63,0.0
51149.0,STARLINK-3360,PAYLOAD,2024-05-20 23:02:23,15.08842764,0.0001577,53.2185,21.6035,102.1555,257.9614,-0.00010308,-1.928e-05,0.0,0 STARLINK-3360,1 51149U 22005AX  24141.95998873 -.00001928  00000-0 -10308-3 0  9996,2 51149  53.2185  21.6035 0001577 102.1555 257.9614 15.08842764129306,6917.872,95.437,540.828,538.646,0.0
51149.0,STARLINK-3360,PAYLOAD,2024-05-21 21:17:47,15.08832613,0.0001848,53.2184,17.442,117.3219,242.7961,0.00022173,3.242e-05,0.0,0 STARLINK-3360,1 51149U 22005AX  24142.88735964  .00003242  00000-0  22173-3 0  9991,2 51149  53.2184  17.4420 0001848 117.3219 242.7961 15.08832613129446,6917.903,95.438,541.046,538.49,0.0
51149.0,STARLINK-3360,PAYLOAD,2024-05-22 02:03:57,15.08840084,0.0001696,53.2184,16.5464,108.2993,251.8184,0.00031668,4.756e-05,0.0,0 STARLINK-3360,1 51149U 22005AX  24143.08607749  .00004756  00000-0  31668-3 0  9993,2 51149  53.2184  16.5464 0001696 108.2993 251.8184 15.08840084130589,6917.88,95.438,540.918,538.572,0.0
51149.0,STARLINK-3360,PAYLOAD,2024-05-22 21:08:34,15.08839608,0.0001585,53.2185,12.9766,98.816,261.3011,0.00011496,1.542e-05,0.0,0 STARLINK-3360,1 51149U 22005AX  24143.88095824  .00001542  00000-0  11496-3 0  9993,2 51149  53.2185  12.9766 0001585  98.8160 261.3011 15.08839608129596,6917.882,95.438,540.843,538.65,0.0
51149.0,STARLINK-3360,PAYLOAD,2024-05-23 00:19:20,15.08846238,0.000147,53.218,12.3812,96.0805,264.0354,0.00022355,3.272e-05,0.0,0 STARLINK-3360,1 51149U 22005AX  24144.01343563  .00003272  00000-0  22355-3 0  9993,2 51149  53.2180  12.3812 0001470  96.0805 264.0354 15.08846238129616,6917.861,95.437,540.743,538.709,0.0
51149.0,STARLINK-3360,PAYLOAD,2024-05-23 19:23:58,15.08839194,0.0001763,53.2182,8.8135,119.4736,240.6432,-4.0972e-06,-3.53e-06,0.0,0 STARLINK-3360,1 51149U 22005AX  24144.80831990 -.00000353  00000-0 -40972-5 0  9992,2 51149  53.2182   8.8135 0001763 119.4736 240.6432 15.08839194130841,6917.883,95.438,540.967,538.528,0.0
51149.0,STARLINK-3360,PAYLOAD,2024-05-23 20:59:21,15.08840772,0.0001541,53.2169,8.5188,100.1871,259.9295,-2.1554e-05,-6.31e-06,0.0,0 STARLINK-3360,1 51149U 22005AX  24144.87455971 -.00000631  00000-0 -21554-4 0  9993,2 51149  53.2169   8.5188 0001541 100.1871 259.9295 15.08840772129743,6917.878,95.438,540.809,538.677,0.0
51149.0,STARLINK-3360,PAYLOAD,2024-05-24 14:28:36,15.088397,0.0001606,53.217,5.2533,70.4262,289.6903,0.00014757,2.061e-05,0.0,0 STARLINK-3360,1 51149U 22005AX  24145.60320452  .00002061  00000-0  14757-3 0  9993,2 51149  53.2170   5.2533 0001606  70.4262 289.6903 15.08839700129855,6917.881,95.438,540.857,538.635,0.0
51149.0,STARLINK-3360,PAYLOAD,2024-05-24 20:50:09,15.08843109,0.0001358,53.2164,4.0602,90.2386,269.8762,4.0508e-05,3.57e-06,0.0,0 STARLINK-3360,1 51149U 22005AX  24145.86816029  .00000357  00000-0  40508-4 0  9991,2 51149  53.2164   4.0602 0001358  90.2386 269.8762 15.08843109131004,6917.871,95.437,540.675,538.796,0.0
51149.0,STARLINK-3360,PAYLOAD,2024-05-25 07:57:50,15.08851626,6.12e-05,53.2161,1.9815,59.317,300.7882,0.00024994,3.694e-05,0.0,0 STARLINK-3360,1 51149U 22005AX  24146.33183431  .00003694  00000-0  24994-3 0  9995,2 51149  53.2161   1.9815 0000612  59.3170 300.7882 15.08851626131070,6917.845,95.437,540.133,539.286,0.0
51149.0,STARLINK-3360,PAYLOAD,2024-05-25 20:40:56,15.08841982,0.000132,53.2158,359.5998,93.2243,266.8901,3.2929e-05,2.36e-06,0.0,0 STARLINK-3360,1 51149U 22005AX  24146.86176303  .00000236  00000-0  32929-4 0  9990,2 51149  53.2158 359.5998 0001320  93.2243 266.8901 15.08841982131152,6917.874,95.437,540.652,538.826,0.0
51149.0,STARLINK-3360,PAYLOAD,2024-05-26 20:31:43,15.08841926,0.0001517,53.2165,355.1469,67.9143,292.201,0.00018883,2.719e-05,0.0,0 STARLINK-3360,1 51149U 22005AX  24147.85536487  .00002719  00000-0  18883-3 0  9993,2 51149  53.2165 355.1469 0001517  67.9143 292.2010 15.08841926130195,6917.875,95.437,540.789,538.69,0.0
51149.0,STARLINK-3360,PAYLOAD,2024-05-27 18:47:07,15.08838624,0.0001556,53.2182,350.9742,99.4252,260.6917,7.6581e-05,9.31e-06,0.0,0 STARLINK-3360,1 51149U 22005AX  24148.78272555  .00000931  00000-0  76581-4 0  9993,2 51149  53.2182 350.9742 0001556  99.4252 260.6917 15.08838624131440,6917.885,95.438,540.826,538.673,0.0
51149.0,STARLINK-3360,PAYLOAD,2024-05-28 05:54:49,15.08840269,0.0001546,53.2182,348.8926,99.1079,261.0088,7.5502e-05,9.14e-06,0.0,0 STARLINK-3360,1 51149U 22005AX  24149.24640457  .00000914  00000-0  75502-4 0  9998,2 51149  53.2182 348.8926 0001546  99.1079 261.0088 15.08840269130400,6917.88,95.438,540.814,538.675,0.0
51149.0,STARLINK-3360,PAYLOAD,2024-05-28 18:37:54,15.08843123,0.0001726,53.2188,346.5178,113.5286,246.5888,9.9438e-05,1.295e-05,0.0,0 STARLINK-3360,1 51149U 22005AX  24149.77632061  .00001295  00000-0  99438-4 0  9995,2 51149  53.2188 346.5178 0001726 113.5286 246.5888 15.08843123130487,6917.871,95.437,540.93,538.542,0.0
51149.0,STARLINK-3360,PAYLOAD,2024-05-28 23:24:03,15.08844464,0.0001605,53.2183,345.6196,106.1863,253.9306,0.00010514,1.386e-05,0.0,0 STARLINK-3360,1 51149U 22005AX  24149.97503885  .00001386  00000-0  10514-3 0  9996,2 51149  53.2183 345.6196 0001605 106.1863 253.9306 15.08844464131620,6917.867,95.437,540.842,538.621,0.0
